BEIDOU-3 IGSO-1         
1 44204U 19023A   26167.59097509 -.00000221  00000+0  00000+0 0  9999
2 44204  58.6939  37.6556 0025458 225.7166 332.2073  1.00291370  7203
TIANHUI 2-01A           
1 44207U 19024A   26166.51026025  .00001535  00000+0  81663-4 0  9996
2 44207  97.4799 170.4687 0001619 100.4752 259.6664 15.16745187101884
TIANHUI 2-01B           
1 44209U 19024C   26166.51026147  .00001551  00000+0  82466-4 0  9993
2 44209  97.4799 170.4662 0002077  88.3626 271.7845 15.16745179394456
BEIDOU-2 G8             
1 44231U 19027A   26167.78480800 -.00000251  00000+0  00000+0 0  9997
2 44231   1.6567  74.4880 0010216 281.8072 335.8279  1.00270894 26073
RISAT-2B                
1 44233U 19028A   26168.21835714  .00002737  00000+0  21264-3 0  9996
2 44233  36.9981 353.9079 0004411  23.3937 336.7006 15.01684828387834
COSMOS 2534 [GLONASS-M] 
1 44299U 19030A   26167.15041896  .00000077  00000+0  00000+0 0  9999
2 44299  64.3685 192.6516 0013389 275.0852 148.6554  2.13102184 54908
YAMAL 601               
1 44307U 19031A   26167.76579663  .00000117  00000+0  00000+0 0  9990
2 44307   0.0191  62.0752 0002342  26.8709 140.7701  1.00270910 25924
BUFENG 1A               
1 44310U 19032A   26168.14535274  .00009709  00000+0  35543-3 0  9998
2 44310  44.9738  57.0214 0010266 252.0698 107.9066 15.28294783387180
BUFENG 1B               
1 44311U 19032B   26168.02232149  .00009204  00000+0  34044-3 0  9996
2 44311  44.9743  10.9487 0026238 324.1010  35.8109 15.27754602387729
JILIN-1 GAOFEN 3A       
1 44312U 19032C   26168.21551340  .00009023  00000+0  29008-3 0  9998
2 44312  44.9754 356.7806 0006444 296.1891  63.8331 15.32629445387843
TIANQI-3                
1 44314U 19032E   26168.17069493  .00015098  00000+0  39467-3 0  9997
2 44314  45.0017 339.8047 0008847 314.9702  45.0468 15.38653701388074
WT 1B                   
1 44316U 19032G   26168.13409544  .00008346  00000+0  31763-3 0  9999
2 44316  44.9725  61.2291 0009947 248.2449 111.7375 15.27182162387079
RCM-1                   
1 44322U 19033A   26167.73236066 -.00000038  00000+0  17449-5 0  9997
2 44322  97.7600 175.1837 0001404  91.4570 268.6810 14.92587663382019
RCM-3                   
1 44323U 19033B   26168.15720550  .00000080  00000+0  13243-4 0  9994
2 44323  97.7598 175.6969 0001534  91.2193 268.9202 14.92588399382093
RCM-2                   
1 44324U 19033C   26168.17941258 -.00000068  00000+0 -11955-5 0  9994
2 44324  97.7613 175.6692 0001425  90.8290 269.3093 14.92588106382085
AT&T T-16               
1 44333U 19034A   26167.66486257 -.00000117  00000+0  00000+0 0  9998
2 44333   0.0218  61.0762 0000804 214.9067 127.4309  1.00268512 25629
EUTELSAT 7C             
1 44334U 19034B   26166.26040124  .00000052  00000+0  00000+0 0  9990
2 44334   0.0734 175.5544 0003062 250.1525 298.5954  1.00272253  6815
BEIDOU-3 IGSO-2         
1 44337U 19035A   26165.62361995 -.00000071  00000+0  00000+0 0  9997
2 44337  55.2456 158.8849 0039904 216.4592 231.8306  1.00267330 25649
PROX-1                  
1 44339U 19036A   26168.19115727  .00010269  00000+0  99479-3 0  9996
2 44339  23.9926 114.2231 0005754  36.9692 323.1203 14.90607207373470
NPSAT1                  
1 44340U 19036B   26167.84671889  .00003869  00000+0  53159-3 0  9998
2 44340  23.9973 219.9806 0007222 202.4838 157.5341 14.74576836372442
OTB                     
1 44341U 19036C   26168.18728421  .00001079  00000+0  18697-3 0  9991
2 44341  23.9973 340.3208 0010935   5.2595 354.8011 14.57210586371377
FORMOSAT 7-3            
1 44343U 19036E   26167.72117214  .00003138  00000+0  16843-3 0  9993
2 44343  23.9974 181.7483 0000311 254.8807 105.1662 15.09796982383174
DSX                     
1 44344U 19036F   26165.33508382 -.00000044  00000+0  00000+0 0  9997
2 44344  42.3307 351.7308 1967292  14.6377 350.3681  4.54374393115668
FORMOSAT 7-1            
1 44349U 19036L   26167.31347771  .00002369  00000+0  17757-3 0  9997
2 44349  23.9980  38.2834 0000843 147.8049 212.2504 14.96502381384520
FORMOSAT 7-4            
1 44350U 19036M   26168.13608036  .00002211  00000+0  16393-3 0  9995
2 44350  23.9979  94.8422 0001131 174.7178 185.3335 14.96497957384067
FORMOSAT 7-2            
1 44351U 19036N   26167.62500003  .00002015  00000+0  14714-3 0  9991
2 44351  23.9963 152.6047 0000756 151.5374 208.5168 14.96496590383502
FORMOSAT 7-6            
1 44353U 19036Q   26167.75812536  .00002328  00000+0  17396-3 0  9990
2 44353  23.9992 332.5244 0001434  89.3524 270.7141 14.96510275381757
FORMOSAT 7-5            
1 44358U 19036V   26167.60202666  .00002190  00000+0  16209-3 0  9995
2 44358  23.9976 272.3289 0000593 117.3250 242.7311 14.96516314382262
METEOR-M2 2             
1 44387U 19038A   26168.24467250  .00000199  00000+0  10605-3 0  9993
2 44387  98.9139 155.5310 0002080  47.7432 312.3922 14.24366283361308
ICEYE-X4                
1 44390U 19038D   26168.19790286  .00010084  00000+0  35697-3 0  9991
2 44390  97.8753 201.1105 0011543 307.3761  52.6426 15.29297215381800
MOMENTUS-X1             
1 44408U 19038Y   26168.11280412  .00039285  00000+0  37506-3 0  9993
2 44408  97.6744 213.4901 0006767  25.9501 334.2096 15.66635042386548
